<?xml version="1.0" encoding="UTF-8"?>
<kml xmlns="http://www.opengis.net/kml/2.2" xmlns:gx="http://www.google.com/kml/ext/2.2" xmlns:kml="http://www.opengis.net/kml/2.2" xmlns:atom="http://www.w3.org/2005/Atom">
<Document>
	<name>36.kmz</name>
	<StyleMap id="m_ylw-pushpin">
		<Pair>
			<key>normal</key>
			<styleUrl>#s_ylw-pushpin</styleUrl>
		</Pair>
		<Pair>
			<key>highlight</key>
			<styleUrl>#s_ylw-pushpin_hl</styleUrl>
		</Pair>
	</StyleMap>
	<Style id="s_ylw-pushpin">
		<IconStyle>
			<scale>1.1</scale>
			<Icon>
				<href>http://maps.google.com/mapfiles/kml/pushpin/ylw-pushpin.png</href>
			</Icon>
			<hotSpot x="20" y="2" xunits="pixels" yunits="pixels"/>
		</IconStyle>
		<PolyStyle>
			<fill>0</fill>
		</PolyStyle>
	</Style>
	<Style id="s_ylw-pushpin_hl">
		<IconStyle>
			<scale>1.3</scale>
			<Icon>
				<href>http://maps.google.com/mapfiles/kml/pushpin/ylw-pushpin.png</href>
			</Icon>
			<hotSpot x="20" y="2" xunits="pixels" yunits="pixels"/>
		</IconStyle>
		<PolyStyle>
			<fill>0</fill>
		</PolyStyle>
	</Style>
	<Placemark>
		<name>36</name>
		<styleUrl>#m_ylw-pushpin</styleUrl>
		<Polygon>
			<tessellate>1</tessellate>
			<outerBoundaryIs>
				<LinearRing>
					<coordinates>
						76.95932437908877,23.44510610296593,0 76.95967994158818,23.445052765089,0 76.95985746908352,23.4450261585074,0 76.96003889836601,23.44499982964087,0 76.9602318179474,23.44497269508453,0 76.96040178271694,23.44497524807475,0 76.96060664401027,23.44494487914992,0 76.96090471575809,23.44490235384693,0 76.96110004126442,23.44485737019049,0 76.96127117034487,23.44481739090129,0 76.96129167974043,23.44483586860832,0 76.9613863008823,23.4450703451217,0 76.96145505723355,23.44525661041187,0 76.96155883181025,23.44551772374294,0 76.9616657743649,23.44577823534885,0 76.96164590597341,23.44580921916461,0 76.96161654499443,23.44585791506097,0 76.96165781179896,23.44592913290523,0 76.96174048834472,23.44603840133077,0 76.96176915380096,23.44612275845066,0 76.96186024695854,23.44642148160167,0 76.96175128024676,23.44644926968775,0 76.9616006362201,23.44646236499845,0 76.96140427907345,23.44645042088384,0 76.9611919079527,23.44647698839473,0 76.96095182777512,23.44650765004551,0 76.96075185782888,23.44654849191125,0 76.96070693852238,23.44635748266861,0 76.96093167007561,23.44629620826273,0 76.96116449891922,23.44625546287548,0 76.96133281952402,23.44620886542048,0 76.96127246414052,23.4460091735458,0 76.96116055714405,23.44564610363282,0 76.96098396195148,23.44567691716015,0 76.96072917959349,23.44573127940756,0 76.96050843033963,23.44577934956466,0 76.96052720198718,23.44587392800209,0 76.96058262463671,23.44603390254091,0 76.96070050082345,23.44635755127757,0 76.96074478468405,23.44654769114644,0 76.96034701214099,23.44663280719055,0 76.96001973406531,23.44670921820368,0 76.95932437908877,23.44510610296593,0 
					</coordinates>
				</LinearRing>
			</outerBoundaryIs>
		</Polygon>
	</Placemark>
</Document>
</kml>
