<?xml version="1.0" encoding="UTF-8"?>
<kml xmlns="http://www.opengis.net/kml/2.2" xmlns:gx="http://www.google.com/kml/ext/2.2" xmlns:kml="http://www.opengis.net/kml/2.2" xmlns:atom="http://www.w3.org/2005/Atom">
<Document>
	<name>39.kmz</name>
	<StyleMap id="m_ylw-pushpin">
		<Pair>
			<key>normal</key>
			<styleUrl>#s_ylw-pushpin</styleUrl>
		</Pair>
		<Pair>
			<key>highlight</key>
			<styleUrl>#s_ylw-pushpin_hl</styleUrl>
		</Pair>
	</StyleMap>
	<Style id="s_ylw-pushpin">
		<IconStyle>
			<scale>1.1</scale>
			<Icon>
				<href>http://maps.google.com/mapfiles/kml/pushpin/ylw-pushpin.png</href>
			</Icon>
			<hotSpot x="20" y="2" xunits="pixels" yunits="pixels"/>
		</IconStyle>
		<PolyStyle>
			<fill>0</fill>
		</PolyStyle>
	</Style>
	<Style id="s_ylw-pushpin_hl">
		<IconStyle>
			<scale>1.3</scale>
			<Icon>
				<href>http://maps.google.com/mapfiles/kml/pushpin/ylw-pushpin.png</href>
			</Icon>
			<hotSpot x="20" y="2" xunits="pixels" yunits="pixels"/>
		</IconStyle>
		<PolyStyle>
			<fill>0</fill>
		</PolyStyle>
	</Style>
	<Placemark>
		<name>39</name>
		<styleUrl>#m_ylw-pushpin</styleUrl>
		<Polygon>
			<tessellate>1</tessellate>
			<outerBoundaryIs>
				<LinearRing>
					<coordinates>
						76.96450835138414,23.45410900453697,0 76.96434992212666,23.45384869154595,0 76.96429818822213,23.45375928091276,0 76.96429039262065,23.45367247546676,0 76.96449158821228,23.45358439103736,0 76.96469979960884,23.45349954167519,0 76.96470862248033,23.45347291905638,0 76.96476117426594,23.45341887080152,0 76.96503281197209,23.45334833861931,0 76.96513417591254,23.45333497690105,0 76.96510915986626,23.45348570015622,0 76.9650941311168,23.45369245970463,0 76.96509479218834,23.45383660646761,0 76.96516706315259,23.45411561712791,0 76.96522201512498,23.45426122416517,0 76.96507297920998,23.45433991042209,0 76.96490789816818,23.45441997756368,0 76.96471292122465,23.45448950414937,0 76.96450835138414,23.45410900453697,0 
					</coordinates>
				</LinearRing>
			</outerBoundaryIs>
		</Polygon>
	</Placemark>
</Document>
</kml>
