<?xml version="1.0" encoding="UTF-8"?>
<kml xmlns="http://www.opengis.net/kml/2.2" xmlns:gx="http://www.google.com/kml/ext/2.2" xmlns:kml="http://www.opengis.net/kml/2.2" xmlns:atom="http://www.w3.org/2005/Atom">
<Document id="document">
	<name>Untitled map</name>
	<gx:CascadingStyle kml:id="__managed_style_55EA1949CB3E8322A149">
		<Style>
			<IconStyle>
				<scale>1.2</scale>
				<Icon>
					<href>https://earth.google.com/earth/document/icon?color=1976d2&amp;id=2000&amp;scale=4</href>
				</Icon>
				<hotSpot x="64" y="128" xunits="pixels" yunits="insetPixels"/>
			</IconStyle>
			<LabelStyle>
			</LabelStyle>
			<LineStyle>
				<color>ff2dc0fb</color>
				<width>4.8</width>
			</LineStyle>
			<PolyStyle>
				<color>40ffffff</color>
			</PolyStyle>
			<BalloonStyle>
				<displayMode>hide</displayMode>
			</BalloonStyle>
		</Style>
	</gx:CascadingStyle>
	<gx:CascadingStyle kml:id="__managed_style_43603FFE483E8322A149">
		<Style>
			<IconStyle>
				<Icon>
					<href>https://earth.google.com/earth/document/icon?color=1976d2&amp;id=2000&amp;scale=4</href>
				</Icon>
				<hotSpot x="64" y="128" xunits="pixels" yunits="insetPixels"/>
			</IconStyle>
			<LabelStyle>
			</LabelStyle>
			<LineStyle>
				<color>ff2dc0fb</color>
				<width>3.2</width>
			</LineStyle>
			<PolyStyle>
				<color>40ffffff</color>
			</PolyStyle>
			<BalloonStyle>
				<displayMode>hide</displayMode>
			</BalloonStyle>
		</Style>
	</gx:CascadingStyle>
	<StyleMap id="__managed_style_3703063E693E8322A149">
		<Pair>
			<key>normal</key>
			<styleUrl>#__managed_style_43603FFE483E8322A149</styleUrl>
		</Pair>
		<Pair>
			<key>highlight</key>
			<styleUrl>#__managed_style_55EA1949CB3E8322A149</styleUrl>
		</Pair>
	</StyleMap>
	<Placemark id="03BF3999093E8322A147">
		<name>Untitled polygon</name>
		<LookAt>
			<longitude>78.81262251346425</longitude>
			<latitude>14.41736836097357</latitude>
			<altitude>173.6348519321704</altitude>
			<heading>172.5081552559826</heading>
			<tilt>0</tilt>
			<gx:fovy>35</gx:fovy>
			<range>502.5804686261109</range>
			<altitudeMode>absolute</altitudeMode>
		</LookAt>
		<styleUrl>#__managed_style_3703063E693E8322A149</styleUrl>
		<Polygon>
			<outerBoundaryIs>
				<LinearRing>
					<coordinates>
						78.8141930308515,14.41747552147164,0 78.8116822308411,14.41773802895704,0 78.81166638224602,14.41767695516716,0 78.8116788040287,14.4175831948129,0 78.81209159588724,14.41749121540468,0 78.81203536791087,14.41726853269079,0 78.81417996642546,14.41696226002315,0 78.8141930308515,14.41747552147164,0 
					</coordinates>
				</LinearRing>
			</outerBoundaryIs>
		</Polygon>
	</Placemark>
</Document>
</kml>
