<?xml version="1.0" encoding="UTF-8"?>
<kml xmlns="http://www.opengis.net/kml/2.2" xmlns:gx="http://www.google.com/kml/ext/2.2" xmlns:kml="http://www.opengis.net/kml/2.2" xmlns:atom="http://www.w3.org/2005/Atom">
<Document id="document">
	<name>Untitled map</name>
	<gx:CascadingStyle kml:id="__managed_style_5ECC3C935B3E7D296004">
		<Style>
			<IconStyle>
				<scale>1.2</scale>
				<Icon>
					<href>https://earth.google.com/earth/document/icon?color=1976d2&amp;id=2000&amp;scale=4</href>
				</Icon>
				<hotSpot x="64" y="128" xunits="pixels" yunits="insetPixels"/>
			</IconStyle>
			<LabelStyle>
			</LabelStyle>
			<LineStyle>
				<color>ff2dc0fb</color>
				<width>4.8</width>
			</LineStyle>
			<PolyStyle>
				<color>40ffffff</color>
			</PolyStyle>
			<BalloonStyle>
				<displayMode>hide</displayMode>
			</BalloonStyle>
		</Style>
	</gx:CascadingStyle>
	<gx:CascadingStyle kml:id="__managed_style_45EA1355113E7D296004">
		<Style>
			<IconStyle>
				<Icon>
					<href>https://earth.google.com/earth/document/icon?color=1976d2&amp;id=2000&amp;scale=4</href>
				</Icon>
				<hotSpot x="64" y="128" xunits="pixels" yunits="insetPixels"/>
			</IconStyle>
			<LabelStyle>
			</LabelStyle>
			<LineStyle>
				<color>ff2dc0fb</color>
				<width>3.2</width>
			</LineStyle>
			<PolyStyle>
				<color>40ffffff</color>
			</PolyStyle>
			<BalloonStyle>
				<displayMode>hide</displayMode>
			</BalloonStyle>
		</Style>
	</gx:CascadingStyle>
	<StyleMap id="__managed_style_3A0D729D053E7D296004">
		<Pair>
			<key>normal</key>
			<styleUrl>#__managed_style_45EA1355113E7D296004</styleUrl>
		</Pair>
		<Pair>
			<key>highlight</key>
			<styleUrl>#__managed_style_5ECC3C935B3E7D296004</styleUrl>
		</Pair>
	</StyleMap>
	<Placemark id="031F87502E3E7D295FF0">
		<name>Untitled polygon</name>
		<LookAt>
			<longitude>73.81987155421233</longitude>
			<latitude>20.11488936278755</latitude>
			<altitude>672.338292207422</altitude>
			<heading>150.0447976625874</heading>
			<tilt>0</tilt>
			<gx:fovy>35</gx:fovy>
			<range>499.5606128503279</range>
			<altitudeMode>absolute</altitudeMode>
		</LookAt>
		<styleUrl>#__managed_style_3A0D729D053E7D296004</styleUrl>
		<Polygon>
			<outerBoundaryIs>
				<LinearRing>
					<coordinates>
						73.81962639746671,20.11559614748128,0 73.81958035872029,20.11554369298143,0 73.81956239237363,20.1154617171668,0 73.81956163314449,20.11537799924409,0 73.81957979416968,20.11530600150844,0 73.81954010430107,20.11435694657177,0 73.82017954591363,20.11436799063134,0 73.82049279083378,20.11578060655025,0 73.81962639746671,20.11559614748128,0 
					</coordinates>
				</LinearRing>
			</outerBoundaryIs>
		</Polygon>
	</Placemark>
</Document>
</kml>
