<?xml version="1.0" encoding="UTF-8"?>
<kml xmlns="http://www.opengis.net/kml/2.2" xmlns:gx="http://www.google.com/kml/ext/2.2" xmlns:kml="http://www.opengis.net/kml/2.2" xmlns:atom="http://www.w3.org/2005/Atom">
<Document id="document">
	<name>Untitled map</name>
	<gx:CascadingStyle kml:id="__managed_style_3B0A46C67B3ECA64FE19">
		<Style>
			<IconStyle>
				<scale>1.2</scale>
				<Icon>
					<href>https://earth.google.com/earth/document/icon?color=1976d2&amp;id=2000&amp;scale=4</href>
				</Icon>
				<hotSpot x="64" y="128" xunits="pixels" yunits="insetPixels"/>
			</IconStyle>
			<LabelStyle>
			</LabelStyle>
			<LineStyle>
				<color>ff2dc0fb</color>
				<width>4.8</width>
			</LineStyle>
			<PolyStyle>
				<color>40ffffff</color>
			</PolyStyle>
			<BalloonStyle>
				<displayMode>hide</displayMode>
			</BalloonStyle>
		</Style>
	</gx:CascadingStyle>
	<gx:CascadingStyle kml:id="__managed_style_2FBA61932F3ECA64FE19">
		<Style>
			<IconStyle>
				<Icon>
					<href>https://earth.google.com/earth/document/icon?color=1976d2&amp;id=2000&amp;scale=4</href>
				</Icon>
				<hotSpot x="64" y="128" xunits="pixels" yunits="insetPixels"/>
			</IconStyle>
			<LabelStyle>
			</LabelStyle>
			<LineStyle>
				<color>ff2dc0fb</color>
				<width>3.2</width>
			</LineStyle>
			<PolyStyle>
				<color>40ffffff</color>
			</PolyStyle>
			<BalloonStyle>
				<displayMode>hide</displayMode>
			</BalloonStyle>
		</Style>
	</gx:CascadingStyle>
	<StyleMap id="__managed_style_1B0B88ADA03ECA64FE19">
		<Pair>
			<key>normal</key>
			<styleUrl>#__managed_style_2FBA61932F3ECA64FE19</styleUrl>
		</Pair>
		<Pair>
			<key>highlight</key>
			<styleUrl>#__managed_style_3B0A46C67B3ECA64FE19</styleUrl>
		</Pair>
	</StyleMap>
	<Placemark id="00C7E1B9343ECA64FE17">
		<name>Untitled polygon</name>
		<LookAt>
			<longitude>76.75745588298231</longitude>
			<latitude>19.38858399026319</latitude>
			<altitude>419.3285004325801</altitude>
			<heading>161.9625996706149</heading>
			<tilt>0</tilt>
			<gx:fovy>35</gx:fovy>
			<range>484.4950342008815</range>
			<altitudeMode>absolute</altitudeMode>
		</LookAt>
		<styleUrl>#__managed_style_1B0B88ADA03ECA64FE19</styleUrl>
		<Polygon>
			<outerBoundaryIs>
				<LinearRing>
					<coordinates>
						76.75734786856584,19.38927583596823,0 76.75703222647682,19.38783166282565,0 76.75772301007508,19.38777950409841,0 76.75791038082963,19.38902168728472,0 76.75734786856584,19.38927583596823,0 
					</coordinates>
				</LinearRing>
			</outerBoundaryIs>
		</Polygon>
	</Placemark>
</Document>
</kml>
