<?xml version="1.0" encoding="UTF-8"?>
<kml xmlns="http://www.opengis.net/kml/2.2" xmlns:gx="http://www.google.com/kml/ext/2.2" xmlns:kml="http://www.opengis.net/kml/2.2" xmlns:atom="http://www.w3.org/2005/Atom">
<Document id="document">
	<name>Untitled map</name>
	<gx:CascadingStyle kml:id="__managed_style_34D920C8703ECA6B1369">
		<Style>
			<IconStyle>
				<scale>1.2</scale>
				<Icon>
					<href>https://earth.google.com/earth/document/icon?color=1976d2&amp;id=2000&amp;scale=4</href>
				</Icon>
				<hotSpot x="64" y="128" xunits="pixels" yunits="insetPixels"/>
			</IconStyle>
			<LabelStyle>
			</LabelStyle>
			<LineStyle>
				<color>ff2dc0fb</color>
				<width>4.8</width>
			</LineStyle>
			<PolyStyle>
				<color>40ffffff</color>
			</PolyStyle>
			<BalloonStyle>
				<displayMode>hide</displayMode>
			</BalloonStyle>
		</Style>
	</gx:CascadingStyle>
	<gx:CascadingStyle kml:id="__managed_style_2CDBFDAB8B3ECA6B1369">
		<Style>
			<IconStyle>
				<Icon>
					<href>https://earth.google.com/earth/document/icon?color=1976d2&amp;id=2000&amp;scale=4</href>
				</Icon>
				<hotSpot x="64" y="128" xunits="pixels" yunits="insetPixels"/>
			</IconStyle>
			<LabelStyle>
			</LabelStyle>
			<LineStyle>
				<color>ff2dc0fb</color>
				<width>3.2</width>
			</LineStyle>
			<PolyStyle>
				<color>40ffffff</color>
			</PolyStyle>
			<BalloonStyle>
				<displayMode>hide</displayMode>
			</BalloonStyle>
		</Style>
	</gx:CascadingStyle>
	<StyleMap id="__managed_style_14C2AEC0453ECA6B1369">
		<Pair>
			<key>normal</key>
			<styleUrl>#__managed_style_2CDBFDAB8B3ECA6B1369</styleUrl>
		</Pair>
		<Pair>
			<key>highlight</key>
			<styleUrl>#__managed_style_34D920C8703ECA6B1369</styleUrl>
		</Pair>
	</StyleMap>
	<Placemark id="08EE0E87063ECA6B1367">
		<name>Untitled polygon</name>
		<LookAt>
			<longitude>76.7373191514465</longitude>
			<latitude>19.38998630120212</latitude>
			<altitude>424.1892046632842</altitude>
			<heading>200.5515392939494</heading>
			<tilt>0</tilt>
			<gx:fovy>35</gx:fovy>
			<range>500.000060134189</range>
			<altitudeMode>absolute</altitudeMode>
		</LookAt>
		<styleUrl>#__managed_style_14C2AEC0453ECA6B1369</styleUrl>
		<Polygon>
			<outerBoundaryIs>
				<LinearRing>
					<coordinates>
						76.7389900357083,19.39011180953705,0 76.7374679126705,19.39022145391555,0 76.73736252028519,19.38937214800824,0 76.7388425368663,19.38935207878586,0 76.7389900357083,19.39011180953705,0 
					</coordinates>
				</LinearRing>
			</outerBoundaryIs>
		</Polygon>
	</Placemark>
</Document>
</kml>
