<?xml version="1.0" encoding="UTF-8"?>
<kml xmlns="http://www.opengis.net/kml/2.2" xmlns:gx="http://www.google.com/kml/ext/2.2" xmlns:kml="http://www.opengis.net/kml/2.2" xmlns:atom="http://www.w3.org/2005/Atom">
<Document>
	<name>26.kmz</name>
	<StyleMap id="m_ylw-pushpin">
		<Pair>
			<key>normal</key>
			<styleUrl>#s_ylw-pushpin</styleUrl>
		</Pair>
		<Pair>
			<key>highlight</key>
			<styleUrl>#s_ylw-pushpin_hl</styleUrl>
		</Pair>
	</StyleMap>
	<Style id="s_ylw-pushpin">
		<IconStyle>
			<scale>1.1</scale>
			<Icon>
				<href>http://maps.google.com/mapfiles/kml/pushpin/ylw-pushpin.png</href>
			</Icon>
			<hotSpot x="20" y="2" xunits="pixels" yunits="pixels"/>
		</IconStyle>
		<PolyStyle>
			<fill>0</fill>
		</PolyStyle>
	</Style>
	<Style id="s_ylw-pushpin_hl">
		<IconStyle>
			<scale>1.3</scale>
			<Icon>
				<href>http://maps.google.com/mapfiles/kml/pushpin/ylw-pushpin.png</href>
			</Icon>
			<hotSpot x="20" y="2" xunits="pixels" yunits="pixels"/>
		</IconStyle>
		<PolyStyle>
			<fill>0</fill>
		</PolyStyle>
	</Style>
	<Placemark>
		<name>26</name>
		<styleUrl>#m_ylw-pushpin</styleUrl>
		<Polygon>
			<tessellate>1</tessellate>
			<outerBoundaryIs>
				<LinearRing>
					<coordinates>
						76.95400676349833,23.43256546454343,0 76.95441892718985,23.43246216056968,0 76.95457728360074,23.43244395545251,0 76.95459972650329,23.43247993665208,0 76.95471401289767,23.43256036941615,0 76.95490244376597,23.4326634810699,0 76.95505987529577,23.43274806936283,0 76.95515084055644,23.43272585323495,0 76.95518890088962,23.4327703309322,0 76.95526962514171,23.43300259183447,0 76.95518381425832,23.43303718886479,0 76.9550581188694,23.4330857720127,0 76.95470255512321,23.43322047068754,0 76.95437045806929,23.43332591085937,0 76.95409633518491,23.43340767521087,0 76.9540289079489,23.43327302435476,0 76.95393996234056,23.4329758064021,0 76.95381817421148,23.43262520256654,0 76.95400676349833,23.43256546454343,0 
					</coordinates>
				</LinearRing>
			</outerBoundaryIs>
		</Polygon>
	</Placemark>
</Document>
</kml>
