<?xml version="1.0" encoding="UTF-8"?>
<kml xmlns="http://www.opengis.net/kml/2.2" xmlns:gx="http://www.google.com/kml/ext/2.2" xmlns:kml="http://www.opengis.net/kml/2.2" xmlns:atom="http://www.w3.org/2005/Atom">
<Document>
	<name>27.kmz</name>
	<StyleMap id="m_ylw-pushpin">
		<Pair>
			<key>normal</key>
			<styleUrl>#s_ylw-pushpin</styleUrl>
		</Pair>
		<Pair>
			<key>highlight</key>
			<styleUrl>#s_ylw-pushpin_hl</styleUrl>
		</Pair>
	</StyleMap>
	<Style id="s_ylw-pushpin">
		<IconStyle>
			<scale>1.1</scale>
			<Icon>
				<href>http://maps.google.com/mapfiles/kml/pushpin/ylw-pushpin.png</href>
			</Icon>
			<hotSpot x="20" y="2" xunits="pixels" yunits="pixels"/>
		</IconStyle>
		<PolyStyle>
			<fill>0</fill>
		</PolyStyle>
	</Style>
	<Style id="s_ylw-pushpin_hl">
		<IconStyle>
			<scale>1.3</scale>
			<Icon>
				<href>http://maps.google.com/mapfiles/kml/pushpin/ylw-pushpin.png</href>
			</Icon>
			<hotSpot x="20" y="2" xunits="pixels" yunits="pixels"/>
		</IconStyle>
		<PolyStyle>
			<fill>0</fill>
		</PolyStyle>
	</Style>
	<Placemark>
		<name>27</name>
		<styleUrl>#m_ylw-pushpin</styleUrl>
		<Polygon>
			<tessellate>1</tessellate>
			<outerBoundaryIs>
				<LinearRing>
					<coordinates>
						76.95423631399711,23.43378821267372,0 76.95409410098883,23.43342144982088,0 76.95415995852052,23.43339322319019,0 76.95428995094051,23.43335376300371,0 76.95436808125126,23.43332939504393,0 76.95455120926401,23.43327134993383,0 76.95483869399357,23.43317522901985,0 76.95500274636935,23.43311528822145,0 76.95520756693693,23.43303394312083,0 76.95528544137336,23.43300594602595,0 76.95535522228724,23.43312245600154,0 76.95546101935186,23.43333347699026,0 76.9555390953696,23.43354890843394,0 76.95541375492705,23.43361811540146,0 76.95533224503258,23.43366952719234,0 76.9552157260328,23.43374416997483,0 76.9550456613015,23.43381719224432,0 76.95478805523884,23.43391823057815,0 76.95462745116157,23.43397657005773,0 76.95448615431069,23.4339877245299,0 76.95432710396048,23.43400425710522,0 76.95423631399711,23.43378821267372,0 
					</coordinates>
				</LinearRing>
			</outerBoundaryIs>
		</Polygon>
	</Placemark>
</Document>
</kml>
