<?xml version="1.0" encoding="UTF-8"?>
<kml xmlns="http://www.opengis.net/kml/2.2" xmlns:gx="http://www.google.com/kml/ext/2.2" xmlns:kml="http://www.opengis.net/kml/2.2" xmlns:atom="http://www.w3.org/2005/Atom">
<Document id="document">
	<name>Untitled map</name>
	<gx:CascadingStyle kml:id="__managed_style_5E0E8C8B453E834E64DC">
		<Style>
			<IconStyle>
				<scale>1.2</scale>
				<Icon>
					<href>https://earth.google.com/earth/document/icon?color=1976d2&amp;id=2000&amp;scale=4</href>
				</Icon>
				<hotSpot x="64" y="128" xunits="pixels" yunits="insetPixels"/>
			</IconStyle>
			<LabelStyle>
			</LabelStyle>
			<LineStyle>
				<color>ff2dc0fb</color>
				<width>4.8</width>
			</LineStyle>
			<PolyStyle>
				<color>40ffffff</color>
			</PolyStyle>
			<BalloonStyle>
				<displayMode>hide</displayMode>
			</BalloonStyle>
		</Style>
	</gx:CascadingStyle>
	<gx:CascadingStyle kml:id="__managed_style_4ED7A95C123E834E64DC">
		<Style>
			<IconStyle>
				<Icon>
					<href>https://earth.google.com/earth/document/icon?color=1976d2&amp;id=2000&amp;scale=4</href>
				</Icon>
				<hotSpot x="64" y="128" xunits="pixels" yunits="insetPixels"/>
			</IconStyle>
			<LabelStyle>
			</LabelStyle>
			<LineStyle>
				<color>ff2dc0fb</color>
				<width>3.2</width>
			</LineStyle>
			<PolyStyle>
				<color>40ffffff</color>
			</PolyStyle>
			<BalloonStyle>
				<displayMode>hide</displayMode>
			</BalloonStyle>
		</Style>
	</gx:CascadingStyle>
	<StyleMap id="__managed_style_36940E198D3E834E64DC">
		<Pair>
			<key>normal</key>
			<styleUrl>#__managed_style_4ED7A95C123E834E64DC</styleUrl>
		</Pair>
		<Pair>
			<key>highlight</key>
			<styleUrl>#__managed_style_5E0E8C8B453E834E64DC</styleUrl>
		</Pair>
	</StyleMap>
	<Placemark id="0DC9290DAE3E834E64D9">
		<name>Untitled polygon</name>
		<LookAt>
			<longitude>77.65211535919859</longitude>
			<latitude>14.69902091830425</latitude>
			<altitude>366.3206839846136</altitude>
			<heading>50.02140478864658</heading>
			<tilt>0</tilt>
			<gx:fovy>35</gx:fovy>
			<range>498.3485171142094</range>
			<altitudeMode>absolute</altitudeMode>
		</LookAt>
		<styleUrl>#__managed_style_36940E198D3E834E64DC</styleUrl>
		<Polygon>
			<outerBoundaryIs>
				<LinearRing>
					<coordinates>
						77.6512667408329,14.69871926701416,0 77.65226513221275,14.6986979524639,0 77.65218836223541,14.69882179342255,0 77.65219411714669,14.69919922314359,0 77.65179070264243,14.6998633601098,0 77.65184246732296,14.70009316998647,0 77.65110555486591,14.7000555787037,0 77.6512667408329,14.69871926701416,0 
					</coordinates>
				</LinearRing>
			</outerBoundaryIs>
		</Polygon>
	</Placemark>
</Document>
</kml>
