<?xml version="1.0" encoding="UTF-8"?>
<kml xmlns="http://www.opengis.net/kml/2.2" xmlns:gx="http://www.google.com/kml/ext/2.2" xmlns:kml="http://www.opengis.net/kml/2.2" xmlns:atom="http://www.w3.org/2005/Atom">
<Document id="document">
	<name>Untitled map</name>
	<gx:CascadingStyle kml:id="__managed_style_20F8A18B9A3E83871C48">
		<Style>
			<IconStyle>
				<scale>1.2</scale>
				<Icon>
					<href>https://earth.google.com/earth/document/icon?color=1976d2&amp;id=2000&amp;scale=4</href>
				</Icon>
				<hotSpot x="64" y="128" xunits="pixels" yunits="insetPixels"/>
			</IconStyle>
			<LabelStyle>
			</LabelStyle>
			<LineStyle>
				<color>ff2dc0fb</color>
				<width>4.8</width>
			</LineStyle>
			<PolyStyle>
				<color>40ffffff</color>
			</PolyStyle>
			<BalloonStyle>
				<displayMode>hide</displayMode>
			</BalloonStyle>
		</Style>
	</gx:CascadingStyle>
	<gx:CascadingStyle kml:id="__managed_style_1B30A640F63E83871C48">
		<Style>
			<IconStyle>
				<Icon>
					<href>https://earth.google.com/earth/document/icon?color=1976d2&amp;id=2000&amp;scale=4</href>
				</Icon>
				<hotSpot x="64" y="128" xunits="pixels" yunits="insetPixels"/>
			</IconStyle>
			<LabelStyle>
			</LabelStyle>
			<LineStyle>
				<color>ff2dc0fb</color>
				<width>3.2</width>
			</LineStyle>
			<PolyStyle>
				<color>40ffffff</color>
			</PolyStyle>
			<BalloonStyle>
				<displayMode>hide</displayMode>
			</BalloonStyle>
		</Style>
	</gx:CascadingStyle>
	<StyleMap id="__managed_style_0E6E4AD27E3E83871C48">
		<Pair>
			<key>normal</key>
			<styleUrl>#__managed_style_1B30A640F63E83871C48</styleUrl>
		</Pair>
		<Pair>
			<key>highlight</key>
			<styleUrl>#__managed_style_20F8A18B9A3E83871C48</styleUrl>
		</Pair>
	</StyleMap>
	<Placemark id="05A13BA3C93E83871C44">
		<name>Untitled polygon</name>
		<LookAt>
			<longitude>77.63582499937795</longitude>
			<latitude>14.72479240984691</latitude>
			<altitude>351.71529260944</altitude>
			<heading>14.24534860508833</heading>
			<tilt>0.08830990196214042</tilt>
			<gx:fovy>35</gx:fovy>
			<range>1083.051021398278</range>
			<altitudeMode>absolute</altitudeMode>
		</LookAt>
		<styleUrl>#__managed_style_0E6E4AD27E3E83871C48</styleUrl>
		<Polygon>
			<outerBoundaryIs>
				<LinearRing>
					<coordinates>
						77.63441993592971,14.72350418624521,0 77.63503095815753,14.72334069510031,0 77.63529316358803,14.72451684146175,0 77.63591109444477,14.72439823404162,0 77.63616674552598,14.7258284928503,0 77.63594896770032,14.7258829248229,0 77.63464431252615,14.72489474032096,0 77.63441993592971,14.72350418624521,0 
					</coordinates>
				</LinearRing>
			</outerBoundaryIs>
		</Polygon>
	</Placemark>
</Document>
</kml>
