<?xml version="1.0" encoding="UTF-8"?>
<kml xmlns="http://www.opengis.net/kml/2.2" xmlns:gx="http://www.google.com/kml/ext/2.2" xmlns:kml="http://www.opengis.net/kml/2.2" xmlns:atom="http://www.w3.org/2005/Atom">
<Document id="document">
	<name>Untitled map</name>
	<gx:CascadingStyle kml:id="__managed_style_3D8E9868483E8388BFCF">
		<Style>
			<IconStyle>
				<scale>1.2</scale>
				<Icon>
					<href>https://earth.google.com/earth/document/icon?color=1976d2&amp;id=2000&amp;scale=4</href>
				</Icon>
				<hotSpot x="64" y="128" xunits="pixels" yunits="insetPixels"/>
			</IconStyle>
			<LabelStyle>
			</LabelStyle>
			<LineStyle>
				<color>ff2dc0fb</color>
				<width>4.8</width>
			</LineStyle>
			<PolyStyle>
				<color>40ffffff</color>
			</PolyStyle>
			<BalloonStyle>
				<displayMode>hide</displayMode>
			</BalloonStyle>
		</Style>
	</gx:CascadingStyle>
	<gx:CascadingStyle kml:id="__managed_style_2C87D0FE9D3E8388BFCF">
		<Style>
			<IconStyle>
				<Icon>
					<href>https://earth.google.com/earth/document/icon?color=1976d2&amp;id=2000&amp;scale=4</href>
				</Icon>
				<hotSpot x="64" y="128" xunits="pixels" yunits="insetPixels"/>
			</IconStyle>
			<LabelStyle>
			</LabelStyle>
			<LineStyle>
				<color>ff2dc0fb</color>
				<width>3.2</width>
			</LineStyle>
			<PolyStyle>
				<color>40ffffff</color>
			</PolyStyle>
			<BalloonStyle>
				<displayMode>hide</displayMode>
			</BalloonStyle>
		</Style>
	</gx:CascadingStyle>
	<StyleMap id="__managed_style_1F877EE5C13E8388BFCF">
		<Pair>
			<key>normal</key>
			<styleUrl>#__managed_style_2C87D0FE9D3E8388BFCF</styleUrl>
		</Pair>
		<Pair>
			<key>highlight</key>
			<styleUrl>#__managed_style_3D8E9868483E8388BFCF</styleUrl>
		</Pair>
	</StyleMap>
	<Placemark id="0F2A286A4F3E8388BFCC">
		<name>Untitled polygon</name>
		<LookAt>
			<longitude>77.56948173982688</longitude>
			<latitude>14.75383439274081</latitude>
			<altitude>365.1102829166414</altitude>
			<heading>349.638806349004</heading>
			<tilt>0</tilt>
			<gx:fovy>35</gx:fovy>
			<range>1448.902937564417</range>
			<altitudeMode>absolute</altitudeMode>
		</LookAt>
		<styleUrl>#__managed_style_1F877EE5C13E8388BFCF</styleUrl>
		<Polygon>
			<outerBoundaryIs>
				<LinearRing>
					<coordinates>
						77.56797312608239,14.75320537403888,0 77.56855516434692,14.75311607978204,0 77.56929522089681,14.75314187585281,0 77.56934389616468,14.75508803098809,0 77.56901433461424,14.75504823507578,0 77.56804410351043,14.7552507452067,0 77.56797312608239,14.75320537403888,0 
					</coordinates>
				</LinearRing>
			</outerBoundaryIs>
		</Polygon>
	</Placemark>
</Document>
</kml>
