<?xml version="1.0" encoding="UTF-8"?>
<kml xmlns="http://www.opengis.net/kml/2.2" xmlns:gx="http://www.google.com/kml/ext/2.2" xmlns:kml="http://www.opengis.net/kml/2.2" xmlns:atom="http://www.w3.org/2005/Atom">
<Document>
	<name>25.kml</name>
	<gx:CascadingStyle kml:id="__managed_style_1DB92474E038DAFD2678">
		<Style>
			<IconStyle>
				<Icon>
					<href>https://earth.google.com/earth/document/icon?color=1976d2&amp;id=2000&amp;scale=4</href>
				</Icon>
				<hotSpot x="64" y="128" xunits="pixels" yunits="insetPixels"/>
			</IconStyle>
			<LabelStyle>
			</LabelStyle>
			<LineStyle>
				<color>ff2dc0fb</color>
				<width>4</width>
			</LineStyle>
			<PolyStyle>
				<color>40ffffff</color>
			</PolyStyle>
			<BalloonStyle>
				<displayMode>hide</displayMode>
			</BalloonStyle>
		</Style>
	</gx:CascadingStyle>
	<gx:CascadingStyle kml:id="__managed_style_258253B24538DAFD2678">
		<Style>
			<IconStyle>
				<scale>1.2</scale>
				<Icon>
					<href>https://earth.google.com/earth/document/icon?color=1976d2&amp;id=2000&amp;scale=4</href>
				</Icon>
				<hotSpot x="64" y="128" xunits="pixels" yunits="insetPixels"/>
			</IconStyle>
			<LabelStyle>
			</LabelStyle>
			<LineStyle>
				<color>ff2dc0fb</color>
				<width>6</width>
			</LineStyle>
			<PolyStyle>
				<color>40ffffff</color>
			</PolyStyle>
			<BalloonStyle>
				<displayMode>hide</displayMode>
			</BalloonStyle>
		</Style>
	</gx:CascadingStyle>
	<StyleMap id="__managed_style_08D248F51738DAFD2678">
		<Pair>
			<key>normal</key>
			<styleUrl>#__managed_style_1DB92474E038DAFD2678</styleUrl>
		</Pair>
		<Pair>
			<key>highlight</key>
			<styleUrl>#__managed_style_258253B24538DAFD2678</styleUrl>
		</Pair>
	</StyleMap>
	<Placemark id="0AD79A6D6338DAFD2648">
		<name>Untitled polygon</name>
		<LookAt>
			<longitude>73.65825564151439</longitude>
			<latitude>19.95248143137763</latitude>
			<altitude>726.0708663547731</altitude>
			<heading>90.4715002636075</heading>
			<tilt>0</tilt>
			<gx:fovy>35</gx:fovy>
			<range>61.2902585125903</range>
			<altitudeMode>absolute</altitudeMode>
		</LookAt>
		<styleUrl>#__managed_style_08D248F51738DAFD2678</styleUrl>
		<Polygon>
			<outerBoundaryIs>
				<LinearRing>
					<coordinates>
						73.6585423354046,19.95262194267271,0 73.65852548276266,19.95291202463822,0 73.65811463113029,19.95291793202443,0 73.65813636417899,19.9525775029765,0 73.6585423354046,19.95262194267271,0 
					</coordinates>
				</LinearRing>
			</outerBoundaryIs>
		</Polygon>
	</Placemark>
</Document>
</kml>
