<?xml version="1.0" encoding="UTF-8"?>
<kml xmlns="http://www.opengis.net/kml/2.2" xmlns:gx="http://www.google.com/kml/ext/2.2" xmlns:kml="http://www.opengis.net/kml/2.2" xmlns:atom="http://www.w3.org/2005/Atom">
<Document>
	<name>27.kml</name>
	<StyleMap id="m_ylw-pushpin">
		<Pair>
			<key>normal</key>
			<styleUrl>#s_ylw-pushpin0</styleUrl>
		</Pair>
		<Pair>
			<key>highlight</key>
			<styleUrl>#s_ylw-pushpin_hl1</styleUrl>
		</Pair>
	</StyleMap>
	<Style id="s_ylw-pushpin0">
		<IconStyle>
			<scale>1.1</scale>
			<Icon>
				<href>http://maps.google.com/mapfiles/kml/pushpin/ylw-pushpin.png</href>
			</Icon>
			<hotSpot x="20" y="2" xunits="pixels" yunits="pixels"/>
		</IconStyle>
		<PolyStyle>
			<fill>0</fill>
		</PolyStyle>
	</Style>
	<Style id="s_ylw-pushpin_hl1">
		<IconStyle>
			<scale>1.3</scale>
			<Icon>
				<href>http://maps.google.com/mapfiles/kml/pushpin/ylw-pushpin.png</href>
			</Icon>
			<hotSpot x="20" y="2" xunits="pixels" yunits="pixels"/>
		</IconStyle>
		<PolyStyle>
			<fill>0</fill>
		</PolyStyle>
	</Style>
	<Placemark>
		<name>28</name>
		<styleUrl>#m_ylw-pushpin</styleUrl>
		<Polygon>
			<tessellate>1</tessellate>
			<outerBoundaryIs>
				<LinearRing>
					<coordinates>
						73.6590931531716,19.95342628236481,0 73.65888891004899,19.95342691577373,0 73.65876635952743,19.953428171716,0 73.65870224293424,19.95341020993586,0 73.6584709665775,19.95343326398526,0 73.65837965037274,19.95347171357679,0 73.65831840748457,19.95344284507717,0 73.65826871493138,19.95347980063238,0 73.6582133564835,19.95347730957846,0 73.6581736295248,19.95346270706391,0 73.65815589148907,19.95341090568833,0 73.6581647811544,19.95334088945695,0 73.65817474520114,19.95327344418615,0 73.65824672204141,19.95325562663576,0 73.65843331694086,19.95324390833699,0 73.65870980390213,19.95322427160817,0 73.65890797289858,19.95322206399402,0 73.65904906175643,19.95321984257518,0 73.65909924762531,19.95324557015247,0 73.65912964417521,19.95327620546173,0 73.6591375396975,19.95330480358127,0 73.65914348832483,19.95333833398107,0 73.65913751169585,19.9533951801604,0 73.6590931531716,19.95342628236481,0 
					</coordinates>
				</LinearRing>
			</outerBoundaryIs>
		</Polygon>
	</Placemark>
</Document>
</kml>
