<?xml version="1.0" encoding="UTF-8"?>
<kml xmlns="http://www.opengis.net/kml/2.2" xmlns:gx="http://www.google.com/kml/ext/2.2" xmlns:kml="http://www.opengis.net/kml/2.2" xmlns:atom="http://www.w3.org/2005/Atom">
<Document>
	<name>43.kml</name>
	<gx:CascadingStyle kml:id="__managed_style_1236F003C338DC459EB0">
		<Style>
			<IconStyle>
				<Icon>
					<href>https://earth.google.com/earth/document/icon?color=1976d2&amp;id=2000&amp;scale=4</href>
				</Icon>
				<hotSpot x="64" y="128" xunits="pixels" yunits="insetPixels"/>
			</IconStyle>
			<LabelStyle>
			</LabelStyle>
			<LineStyle>
				<color>ff2dc0fb</color>
				<width>4</width>
			</LineStyle>
			<PolyStyle>
				<color>40ffffff</color>
			</PolyStyle>
			<BalloonStyle>
				<displayMode>hide</displayMode>
			</BalloonStyle>
		</Style>
	</gx:CascadingStyle>
	<gx:CascadingStyle kml:id="__managed_style_24CC55BEF738DC459EB0">
		<Style>
			<IconStyle>
				<scale>1.2</scale>
				<Icon>
					<href>https://earth.google.com/earth/document/icon?color=1976d2&amp;id=2000&amp;scale=4</href>
				</Icon>
				<hotSpot x="64" y="128" xunits="pixels" yunits="insetPixels"/>
			</IconStyle>
			<LabelStyle>
			</LabelStyle>
			<LineStyle>
				<color>ff2dc0fb</color>
				<width>6</width>
			</LineStyle>
			<PolyStyle>
				<color>40ffffff</color>
			</PolyStyle>
			<BalloonStyle>
				<displayMode>hide</displayMode>
			</BalloonStyle>
		</Style>
	</gx:CascadingStyle>
	<StyleMap id="__managed_style_05EB86149F38DC459EB0">
		<Pair>
			<key>normal</key>
			<styleUrl>#__managed_style_1236F003C338DC459EB0</styleUrl>
		</Pair>
		<Pair>
			<key>highlight</key>
			<styleUrl>#__managed_style_24CC55BEF738DC459EB0</styleUrl>
		</Pair>
	</StyleMap>
	<Placemark id="05018DBB9238DC459E91">
		<name>Untitled polygon</name>
		<LookAt>
			<longitude>73.69840097157156</longitude>
			<latitude>20.0465659007881</latitude>
			<altitude>621.8079292927767</altitude>
			<heading>100.3170762434792</heading>
			<tilt>0</tilt>
			<gx:fovy>35</gx:fovy>
			<range>63.41698867464402</range>
			<altitudeMode>absolute</altitudeMode>
		</LookAt>
		<styleUrl>#__managed_style_05EB86149F38DC459EB0</styleUrl>
		<Polygon>
			<outerBoundaryIs>
				<LinearRing>
					<coordinates>
						73.69832196719909,20.04645256864373,0 73.69839599480592,20.04610673393455,0 73.69855993302339,20.0461309480885,0 73.69858995686054,20.04623293809225,0 73.69856273244623,20.04640953778768,0 73.69853196759375,20.04643534999244,0 73.69855652311111,20.0464840894912,0 73.6985208656052,20.04668858783285,0 73.69827951703462,20.04671256714877,0 73.69832196719909,20.04645256864373,0 
					</coordinates>
				</LinearRing>
			</outerBoundaryIs>
		</Polygon>
	</Placemark>
</Document>
</kml>
