<?xml version="1.0" encoding="UTF-8"?>
<kml xmlns="http://www.opengis.net/kml/2.2" xmlns:gx="http://www.google.com/kml/ext/2.2" xmlns:kml="http://www.opengis.net/kml/2.2" xmlns:atom="http://www.w3.org/2005/Atom">
<Document>
	<name>13.kml</name>
	<gx:CascadingStyle kml:id="__managed_style_1097DE0EB038DBAD9BA9">
		<Style>
			<IconStyle>
				<Icon>
					<href>https://earth.google.com/earth/document/icon?color=1976d2&amp;id=2000&amp;scale=4</href>
				</Icon>
				<hotSpot x="64" y="128" xunits="pixels" yunits="insetPixels"/>
			</IconStyle>
			<LabelStyle>
			</LabelStyle>
			<LineStyle>
				<color>ff2dc0fb</color>
				<width>4</width>
			</LineStyle>
			<PolyStyle>
				<color>40ffffff</color>
			</PolyStyle>
			<BalloonStyle>
				<displayMode>hide</displayMode>
			</BalloonStyle>
		</Style>
	</gx:CascadingStyle>
	<gx:CascadingStyle kml:id="__managed_style_25C3E5DCF838DBAD9BA9">
		<Style>
			<IconStyle>
				<scale>1.2</scale>
				<Icon>
					<href>https://earth.google.com/earth/document/icon?color=1976d2&amp;id=2000&amp;scale=4</href>
				</Icon>
				<hotSpot x="64" y="128" xunits="pixels" yunits="insetPixels"/>
			</IconStyle>
			<LabelStyle>
			</LabelStyle>
			<LineStyle>
				<color>ff2dc0fb</color>
				<width>6</width>
			</LineStyle>
			<PolyStyle>
				<color>40ffffff</color>
			</PolyStyle>
			<BalloonStyle>
				<displayMode>hide</displayMode>
			</BalloonStyle>
		</Style>
	</gx:CascadingStyle>
	<StyleMap id="__managed_style_0106A5EF5738DBAD9BA9">
		<Pair>
			<key>normal</key>
			<styleUrl>#__managed_style_1097DE0EB038DBAD9BA9</styleUrl>
		</Pair>
		<Pair>
			<key>highlight</key>
			<styleUrl>#__managed_style_25C3E5DCF838DBAD9BA9</styleUrl>
		</Pair>
	</StyleMap>
	<Placemark id="025958D70E38DBAD9B90">
		<name>Untitled polygon</name>
		<LookAt>
			<longitude>73.77369686181527</longitude>
			<latitude>20.03031063828755</latitude>
			<altitude>605.847484344357</altitude>
			<heading>87.18165107992228</heading>
			<tilt>0</tilt>
			<gx:fovy>35</gx:fovy>
			<range>114.6512053306105</range>
			<altitudeMode>absolute</altitudeMode>
		</LookAt>
		<styleUrl>#__managed_style_0106A5EF5738DBAD9BA9</styleUrl>
		<Polygon>
			<outerBoundaryIs>
				<LinearRing>
					<coordinates>
						73.77362271739958,20.03004853612498,0 73.77370483898517,20.03003603432733,0 73.77374060058902,20.03034519921939,0 73.7736567971215,20.03034913251746,0 73.77362271739958,20.03004853612498,0 
					</coordinates>
				</LinearRing>
			</outerBoundaryIs>
		</Polygon>
	</Placemark>
</Document>
</kml>
