<?xml version="1.0" encoding="UTF-8"?>
<kml xmlns="http://www.opengis.net/kml/2.2" xmlns:gx="http://www.google.com/kml/ext/2.2" xmlns:kml="http://www.opengis.net/kml/2.2" xmlns:atom="http://www.w3.org/2005/Atom">
<Document>
	<name>34.kml</name>
	<gx:CascadingStyle kml:id="__managed_style_250899184D38DC140E07">
		<Style>
			<IconStyle>
				<scale>1.2</scale>
				<Icon>
					<href>https://earth.google.com/earth/document/icon?color=1976d2&amp;id=2000&amp;scale=4</href>
				</Icon>
				<hotSpot x="64" y="128" xunits="pixels" yunits="insetPixels"/>
			</IconStyle>
			<LabelStyle>
			</LabelStyle>
			<LineStyle>
				<color>ff2dc0fb</color>
				<width>6</width>
			</LineStyle>
			<PolyStyle>
				<color>40ffffff</color>
			</PolyStyle>
			<BalloonStyle>
				<displayMode>hide</displayMode>
			</BalloonStyle>
		</Style>
	</gx:CascadingStyle>
	<gx:CascadingStyle kml:id="__managed_style_143D2BB13A38DC140E07">
		<Style>
			<IconStyle>
				<Icon>
					<href>https://earth.google.com/earth/document/icon?color=1976d2&amp;id=2000&amp;scale=4</href>
				</Icon>
				<hotSpot x="64" y="128" xunits="pixels" yunits="insetPixels"/>
			</IconStyle>
			<LabelStyle>
			</LabelStyle>
			<LineStyle>
				<color>ff2dc0fb</color>
				<width>4</width>
			</LineStyle>
			<PolyStyle>
				<color>40ffffff</color>
			</PolyStyle>
			<BalloonStyle>
				<displayMode>hide</displayMode>
			</BalloonStyle>
		</Style>
	</gx:CascadingStyle>
	<StyleMap id="__managed_style_0B26BA52EE38DC140E07">
		<Pair>
			<key>normal</key>
			<styleUrl>#__managed_style_143D2BB13A38DC140E07</styleUrl>
		</Pair>
		<Pair>
			<key>highlight</key>
			<styleUrl>#__managed_style_250899184D38DC140E07</styleUrl>
		</Pair>
	</StyleMap>
	<Placemark id="0A77BBBABA38DC21CA59">
		<name>Untitled polygon</name>
		<LookAt>
			<longitude>73.85437297119257</longitude>
			<latitude>20.01212469038627</latitude>
			<altitude>608.1320885179111</altitude>
			<heading>170.1267942355931</heading>
			<tilt>0</tilt>
			<gx:fovy>35</gx:fovy>
			<range>154.6452887282612</range>
			<altitudeMode>absolute</altitudeMode>
		</LookAt>
		<styleUrl>#__managed_style_0B26BA52EE38DC140E07</styleUrl>
		<Polygon>
			<outerBoundaryIs>
				<LinearRing>
					<coordinates>
						73.85408296109122,20.01229232558767,0 73.85405073593793,20.01178285032674,0 73.85420484413875,20.01181607618662,0 73.85423822278977,20.0122665849097,0 73.85408296109122,20.01229232558767,0 
					</coordinates>
				</LinearRing>
			</outerBoundaryIs>
		</Polygon>
	</Placemark>
</Document>
</kml>
